{
    "links": {
        "self": "http://www.neowsapp.com/rest/v1/neo/3092484?api_key=iIulBulltgU6a56xZRHN4H3l9WmuAYTsLGpBGhQ2"
    },
    "id": "3092484",
    "neo_reference_id": "3092484",
    "name": "(2001 VG16)",
    "designation": "2001 VG16",
    "nasa_jpl_url": "http://ssd.jpl.nasa.gov/sbdb.cgi?sstr=3092484",
    "absolute_magnitude_h": 25.3,
    "estimated_diameter": {
        "kilometers": {
            "estimated_diameter_min": 0.0231502122,
            "estimated_diameter_max": 0.0517654482
        },
        "meters": {
            "estimated_diameter_min": 23.150212221,
            "estimated_diameter_max": 51.7654482198
        },
        "miles": {
            "estimated_diameter_min": 0.0143848705,
            "estimated_diameter_max": 0.0321655483
        },
        "feet": {
            "estimated_diameter_min": 75.9521422633,
            "estimated_diameter_max": 169.8341531374
        }
    },
    "is_potentially_hazardous_asteroid": false,
    "close_approach_data": [
        {
            "close_approach_date": "2001-11-13",
            "close_approach_date_full": "2001-Nov-13 04:07",
            "epoch_date_close_approach": 1005624420000,
            "relative_velocity": {
                "kilometers_per_second": "8.7027581453",
                "kilometers_per_hour": "31329.9293229901",
                "miles_per_hour": "19467.1996951657"
            },
            "miss_distance": {
                "astronomical": "0.0169803961",
                "lunar": "6.6053740829",
                "kilometers": "2540231.088316307",
                "miles": "1578426.4056747566"
            },
            "orbiting_body": "Earth"
        },
        {
            "close_approach_date": "2166-10-10",
            "close_approach_date_full": "2166-Oct-10 21:27",
            "epoch_date_close_approach": 6209645220000,
            "relative_velocity": {
                "kilometers_per_second": "16.4555572064",
                "kilometers_per_hour": "59240.0059429306",
                "miles_per_hour": "36809.4359149282"
            },
            "miss_distance": {
                "astronomical": "0.3309139046",
                "lunar": "128.7255088894",
                "kilometers": "49504015.281543202",
                "miles": "30760368.7187001076"
            },
            "orbiting_body": "Earth"
        }
    ],
    "orbital_data": {
        "orbit_id": "9",
        "orbit_determination_date": "2017-04-06 09:15:51",
        "first_observation_date": "2001-11-12",
        "last_observation_date": "2001-11-16",
        "data_arc_in_days": 4,
        "observations_used": 22,
        "orbit_uncertainty": "8",
        "minimum_orbit_intersection": ".0158303",
        "jupiter_tisserand_invariant": "3.984",
        "epoch_osculation": "2452227.5",
        "eccentricity": ".4329775029974463",
        "semi_major_axis": "1.759226415576244",
        "inclination": "11.68018211859446",
        "ascending_node_longitude": "48.61564284939086",
        "orbital_period": "852.2775193873999",
        "perihelion_distance": ".9975209549528944",
        "perihelion_argument": "14.0249676086806",
        "aphelion_distance": "2.520931876199595",
        "perihelion_time": "2452236.912335212011",
        "mean_anomaly": "356.0242519610754",
        "mean_motion": ".4223976249646486",
        "equinox": "J2000",
        "orbit_class": {
            "orbit_class_type": "APO",
            "orbit_class_description": "Near-Earth asteroid orbits which cross the Earth’s orbit similar to that of 1862 Apollo",
            "orbit_class_range": "a (semi-major axis) > 1.0 AU; q (perihelion) < 1.017 AU"
        }
    },
    "is_sentry_object": false
}